{"type": "FeatureCollection", "features": [ {"type": "Feature", "properties": {"norad_id": 38779, "name": "GSAT-10 (GAGAN/PRN 128)", "group": "gnss", "lat": 0.07235352241948236, "lon": 33.60257848679498, "alt_km": 35786.025924763926, "timestamp": "2025-12-19T14:48:36.489760+00:00", "meta": {"OBJECT_NAME": "GSAT-10 (GAGAN/PRN 128)", "OBJECT_ID": "2012-051B", "EPOCH": "2025-12-18T15:24:07.068672", "MEAN_MOTION": 1.00272485, "ECCENTRICITY": 0.00024695, "INCLINATION": 0.0769, "RA_OF_ASC_NODE": 265.4602, "ARG_OF_PERICENTER": 219.0133, "MEAN_ANOMALY": 277.0818, "EPHEMERIS_TYPE": 0, "CLASSIFICATION_TYPE": "U", "NORAD_CAT_ID": 38779, "ELEMENT_SET_NO": 999, "REV_AT_EPOCH": 4828, "BSTAR": 0, "MEAN_MOTION_DOT": -1.4e-06, "MEAN_MOTION_DDOT": 0}, "tle": {"line1": "1 38779U 12051B   25352.64174848 -.00000140  00000+0  00000+0 0  9996", "line2": "2 38779   0.0769 265.4602 0002469 219.0133 277.0818  1.00272485 48287"}}, "geometry": {"type": "Point", "coordinates": [33.60257848679498, 0.07235352241948236]}}, {"type": "Feature", "properties": {"norad_id": 38833, "name": "GPS BIIF-3  (PRN 24)", "group": "gnss", "lat": -22.5422357985907, "lon": -11.19142228007776, "alt_km": 20561.663524370095, "timestamp": "2025-12-19T14:48:36.489772+00:00", "meta": {"OBJECT_NAME": "GPS BIIF-3  (PRN 24)", "OBJECT_ID": "2012-053A", "EPOCH": "2025-12-18T20:00:59.061024", "MEAN_MOTION": 2.0056508, "ECCENTRICITY": 0.01760017, "INCLINATION": 53.559, "RA_OF_ASC_NODE": 150.9891, "ARG_OF_PERICENTER": 64.0868, "MEAN_ANOMALY": 297.7017, "EPHEMERIS_TYPE": 0, "CLASSIFICATION_TYPE": "U", "NORAD_CAT_ID": 38833, "ELEMENT_SET_NO": 999, "REV_AT_EPOCH": 9582, "BSTAR": 0, "MEAN_MOTION_DOT": 5.8e-07, "MEAN_MOTION_DDOT": 0}, "tle": {"line1": "1 38833U 12053A   25352.83401691  .00000058  00000+0  00000+0 0  9996", "line2": "2 38833  53.5590 150.9891 0176001  64.0868 297.7017  2.00565080 95827"}}, "geometry": {"type": "Point", "coordinates": [-11.19142228007776, -22.5422357985907]}}, {"type": "Feature", "properties": {"norad_id": 38857, "name": "GSAT0103 (GALILEO-FM3)", "group": "gnss", "lat": 34.124877392471845, "lon": -101.04996985240258, "alt_km": 23223.732685533112, "timestamp": "2025-12-19T14:48:36.489784+00:00", "meta": {"OBJECT_NAME": "GSAT0103 (GALILEO-FM3)", "OBJECT_ID": "2012-055A", "EPOCH": "2025-12-18T05:17:11.481792", "MEAN_MOTION": 1.70473412, "ECCENTRICITY": 0.00028558, "INCLINATION": 55.6954, "RA_OF_ASC_NODE": 106.5161, "ARG_OF_PERICENTER": 269.0808, "MEAN_ANOMALY": 90.8455, "EPHEMERIS_TYPE": 0, "CLASSIFICATION_TYPE": "U", "NORAD_CAT_ID": 38857, "ELEMENT_SET_NO": 999, "REV_AT_EPOCH": 8192, "BSTAR": 0, "MEAN_MOTION_DOT": -7e-08, "MEAN_MOTION_DDOT": 0}, "tle": {"line1": "1 38857U 12055A   25352.22027178 -.00000007  00000+0  00000+0 0  9996", "line2": "2 38857  55.6954 106.5161 0002855 269.0808  90.8455  1.70473412 81920"}}, "geometry": {"type": "Point", "coordinates": [-101.04996985240258, 34.124877392471845]}}, {"type": "Feature", "properties": {"norad_id": 38953, "name": "BEIDOU-2 G6 (C02)", "group": "gnss", "lat": -2.5766486592920996, "lon": 34.67335616829002, "alt_km": 35756.290713064656, "timestamp": "2025-12-19T14:48:36.489796+00:00", "meta": {"OBJECT_NAME": "BEIDOU-2 G6 (C02)", "OBJECT_ID": "2012-059A", "EPOCH": "2025-12-19T01:33:51.789600", "MEAN_MOTION": 1.00269092, "ECCENTRICITY": 0.00082571, "INCLINATION": 3.9642, "RA_OF_ASC_NODE": 75.4471, "ARG_OF_PERICENTER": 292.1855, "MEAN_ANOMALY": 187.7113, "EPHEMERIS_TYPE": 0, "CLASSIFICATION_TYPE": "U", "NORAD_CAT_ID": 38953, "ELEMENT_SET_NO": 999, "REV_AT_EPOCH": 4810, "BSTAR": 0, "MEAN_MOTION_DOT": -1.53e-06, "MEAN_MOTION_DDOT": 0}, "tle": {"line1": "1 38953U 12059A   25353.06518275 -.00000153  00000+0  00000+0 0  9995", "line2": "2 38953   3.9642  75.4471 0008257 292.1855 187.7113  1.00269092 48106"}}, "geometry": {"type": "Point", "coordinates": [34.67335616829002, -2.5766486592920996]}}, {"type": "Feature", "properties": {"norad_id": 38977, "name": "LUCH 5B (SDCM/PRN 125)", "group": "gnss", "lat": -8.983037539306926, "lon": -66.02374463336729, "alt_km": 35768.04142905538, "timestamp": "2025-12-19T14:48:36.489811+00:00", "meta": {"OBJECT_NAME": "LUCH 5B (SDCM/PRN 125)", "OBJECT_ID": "2012-061A", "EPOCH": "2025-12-19T08:07:13.710432", "MEAN_MOTION": 1.00272469, "ECCENTRICITY": 0.00066477, "INCLINATION": 10.0948, "RA_OF_ASC_NODE": 51.6429, "ARG_OF_PERICENTER": 195.0477, "MEAN_ANOMALY": 306.9758, "EPHEMERIS_TYPE": 0, "CLASSIFICATION_TYPE": "U", "NORAD_CAT_ID": 38977, "ELEMENT_SET_NO": 999, "REV_AT_EPOCH": 4780, "BSTAR": 0, "MEAN_MOTION_DOT": -1.21e-06, "MEAN_MOTION_DDOT": 0}, "tle": {"line1": "1 38977U 12061A   25353.33835313 -.00000121  00000+0  00000+0 0  9994", "line2": "2 38977  10.0948  51.6429 0006647 195.0477 306.9758  1.00272469 47809"}}, "geometry": {"type": "Point", "coordinates": [-66.02374463336729, -8.983037539306926]}}, {"type": "Feature", "properties": {"norad_id": 39155, "name": "COSMOS 2485 (747)", "group": "gnss", "lat": -24.894004336017982, "lon": 67.34718947175956, "alt_km": 19146.814875888595, "timestamp": "2025-12-19T14:48:36.489822+00:00", "meta": {"OBJECT_NAME": "COSMOS 2485 (747)", "OBJECT_ID": "2013-019A", "EPOCH": "2025-12-18T17:09:02.655648", "MEAN_MOTION": 2.13103192, "ECCENTRICITY": 0.00247782, "INCLINATION": 65.3168, "RA_OF_ASC_NODE": 79.6661, "ARG_OF_PERICENTER": 230.0863, "MEAN_ANOMALY": 129.7189, "EPHEMERIS_TYPE": 0, "CLASSIFICATION_TYPE": "U", "NORAD_CAT_ID": 39155, "ELEMENT_SET_NO": 999, "REV_AT_EPOCH": 9843, "BSTAR": 0, "MEAN_MOTION_DOT": -3.5e-07, "MEAN_MOTION_DDOT": 0}, "tle": {"line1": "1 39155U 13019A   25352.71461407 -.00000035  00000+0  00000+0 0  9991", "line2": "2 39155  65.3168  79.6661 0024778 230.0863 129.7189  2.13103192 98432"}}, "geometry": {"type": "Point", "coordinates": [67.34718947175956, -24.894004336017982]}}, {"type": "Feature", "properties": {"norad_id": 39166, "name": "GPS BIIF-4  (PRN 27)", "group": "gnss", "lat": -43.03968922583421, "lon": -125.16944938865082, "alt_km": 20279.933538443205, "timestamp": "2025-12-19T14:48:36.489834+00:00", "meta": {"OBJECT_NAME": "GPS BIIF-4  (PRN 27)", "OBJECT_ID": "2013-023A", "EPOCH": "2025-12-19T04:43:12.891072", "MEAN_MOTION": 2.0056472, "ECCENTRICITY": 0.01383011, "INCLINATION": 54.6464, "RA_OF_ASC_NODE": 276.3057, "ARG_OF_PERICENTER": 48.6899, "MEAN_ANOMALY": 312.5197, "EPHEMERIS_TYPE": 0, "CLASSIFICATION_TYPE": "U", "NORAD_CAT_ID": 39166, "ELEMENT_SET_NO": 999, "REV_AT_EPOCH": 9227, "BSTAR": 0, "MEAN_MOTION_DOT": -2.9e-07, "MEAN_MOTION_DDOT": 0}, "tle": {"line1": "1 39166U 13023A   25353.19667698 -.00000029  00000+0  00000+0 0  9994", "line2": "2 39166  54.6464 276.3057 0138301  48.6899 312.5197  2.00564720 92270"}}, "geometry": {"type": "Point", "coordinates": [-125.16944938865082, -43.03968922583421]}}, {"type": "Feature", "properties": {"norad_id": 39199, "name": "IRNSS-1A", "group": "gnss", "lat": -30.311261634794647, "lon": 10.976478846407208, "alt_km": 35786.46406972275, "timestamp": "2025-12-19T14:48:36.489846+00:00", "meta": {"OBJECT_NAME": "IRNSS-1A", "OBJECT_ID": "2013-034A", "EPOCH": "2025-12-18T18:41:43.776960", "MEAN_MOTION": 1.00272479, "ECCENTRICITY": 0.0024472, "INCLINATION": 35.3183, "RA_OF_ASC_NODE": 66.4661, "ARG_OF_PERICENTER": 211.0525, "MEAN_ANOMALY": 145.3931, "EPHEMERIS_TYPE": 0, "CLASSIFICATION_TYPE": "U", "NORAD_CAT_ID": 39199, "ELEMENT_SET_NO": 999, "REV_AT_EPOCH": 4555, "BSTAR": 0, "MEAN_MOTION_DOT": 6.5e-07, "MEAN_MOTION_DDOT": 0}, "tle": {"line1": "1 39199U 13034A   25352.77897890  .00000065  00000+0  00000+0 0  9993", "line2": "2 39199  35.3183  66.4661 0024472 211.0525 145.3931  1.00272479 45557"}}, "geometry": {"type": "Point", "coordinates": [10.976478846407208, -30.311261634794647]}}, {"type": "Feature", "properties": {"norad_id": 39533, "name": "GPS BIIF-5  (PRN 30)", "group": "gnss", "lat": -39.07381574270656, "lon": 119.8686932204107, "alt_km": 20154.28736152122, "timestamp": "2025-12-19T14:48:36.489857+00:00", "meta": {"OBJECT_NAME": "GPS BIIF-5  (PRN 30)", "OBJECT_ID": "2014-008A", "EPOCH": "2025-12-17T04:42:21.782016", "MEAN_MOTION": 2.00574699, "ECCENTRICITY": 0.00793343, "INCLINATION": 53.632, "RA_OF_ASC_NODE": 156.7429, "ARG_OF_PERICENTER": 226.5757, "MEAN_ANOMALY": 132.7662, "EPHEMERIS_TYPE": 0, "CLASSIFICATION_TYPE": "U", "NORAD_CAT_ID": 39533, "ELEMENT_SET_NO": 999, "REV_AT_EPOCH": 8603, "BSTAR": 0, "MEAN_MOTION_DOT": 7.8e-07, "MEAN_MOTION_DDOT": 0}, "tle": {"line1": "1 39533U 14008A   25351.19608544  .00000078  00000+0  00000+0 0  9992", "line2": "2 39533  53.6320 156.7429 0079334 226.5757 132.7662  2.00574699 86034"}}, "geometry": {"type": "Point", "coordinates": [119.8686932204107, -39.07381574270656]}}, {"type": "Feature", "properties": {"norad_id": 39617, "name": "ASTRA 5B (EGNOS/PRN 123)", "group": "gnss", "lat": -0.025096995229292665, "lon": -25.849276770862915, "alt_km": 35781.89647660491, "timestamp": "2025-12-19T14:48:36.489869+00:00", "meta": {"OBJECT_NAME": "ASTRA 5B (EGNOS/PRN 123)", "OBJECT_ID": "2014-011B", "EPOCH": "2025-12-19T06:31:35.490720", "MEAN_MOTION": 1.0027043, "ECCENTRICITY": 0.00038406, "INCLINATION": 0.043, "RA_OF_ASC_NODE": 356.3006, "ARG_OF_PERICENTER": 263.9133, "MEAN_ANOMALY": 309.3124, "EPHEMERIS_TYPE": 0, "CLASSIFICATION_TYPE": "U", "NORAD_CAT_ID": 39617, "ELEMENT_SET_NO": 999, "REV_AT_EPOCH": 4286, "BSTAR": 0, "MEAN_MOTION_DOT": 1.62e-06, "MEAN_MOTION_DDOT": 0}, "tle": {"line1": "1 39617U 14011B   25353.27193855  .00000162  00000+0  00000+0 0  9998", "line2": "2 39617   0.0430 356.3006 0003840 263.9133 309.3124  1.00270430 42869"}}, "geometry": {"type": "Point", "coordinates": [-25.849276770862915, -0.025096995229292665]}}]}